$$SOE
2460154.500000000, A.D. 2023-Jul-29 00:00:00.0000, -6.733139860222630E+07, 4.359002554847984E+08, -1.040010779718838E+08,
2460161.500000000, A.D. 2023-Aug-05 00:00:00.0000, -7.688893670642847E+07, 4.359203432624473E+08, -1.050975030550057E+08,
2460168.500000000, A.D. 2023-Aug-12 00:00:00.0000, -8.640684063033882E+07, 4.357156782042993E+08, -1.061397373975291E+08,
2460175.500000000, A.D. 2023-Aug-19 00:00:00.0000, -9.588071691513453E+07, 4.352889372911668E+08, -1.071278704048045E+08,
2460182.500000000, A.D. 2023-Aug-26 00:00:00.0000, -1.053062852991181E+08, 4.346428108959205E+08, -1.080620075339386E+08,
2460189.500000000, A.D. 2023-Sep-02 00:00:00.0000, -1.146793745193724E+08, 4.337800005993115E+08, -1.089422693226367E+08,
2460196.500000000, A.D. 2023-Sep-09 00:00:00.0000, -1.239959182157784E+08, 4.327032171150855E+08, -1.097687904915481E+08,
2460203.500000000, A.D. 2023-Sep-16 00:00:00.0000, -1.332519507695073E+08, 4.314151782516538E+08, -1.105417191370235E+08,
2460210.500000000, A.D. 2023-Sep-23 00:00:00.0000, -1.424436026598109E+08, 4.299186071834087E+08, -1.112612160259483E+08,
2460217.500000000, A.D. 2023-Sep-30 00:00:00.0000, -1.515670956787351E+08, 4.282162322102702E+08, -1.119274538616277E+08,
2460224.500000000, A.D. 2023-Oct-07 00:00:00.0000, -1.606187403561366E+08, 4.263107874518858E+08, -1.125406163469663E+08,
2460231.500000000, A.D. 2023-Oct-14 00:00:00.0000, -1.695949345524054E+08, 4.242050111510648E+08, -1.131008974075921E+08,
2460238.500000000, A.D. 2023-Oct-21 00:00:00.0000, -1.784921599899697E+08, 4.219016431774008E+08, -1.136085007367789E+08,
2460245.500000000, A.D. 2023-Oct-28 00:00:00.0000, -1.873069781475095E+08, 4.194034239834019E+08, -1.140636393454359E+08,
2460252.500000000, A.D. 2023-Nov-04 00:00:00.0000, -1.960360267640106E+08, 4.167130942350968E+08, -1.144665350636475E+08,
2460259.500000000, A.D. 2023-Nov-11 00:00:00.0000, -2.046760167718040E+08, 4.138333945087541E+08, -1.148174180564663E+08,
2460266.500000000, A.D. 2023-Nov-18 00:00:00.0000, -2.132237294359288E+08, 4.107670649810778E+08, -1.151165263766043E+08,
2460273.500000000, A.D. 2023-Nov-25 00:00:00.0000, -2.216760136239824E+08, 4.075168451273034E+08, -1.153641055560451E+08,
2460280.500000000, A.D. 2023-Dec-02 00:00:00.0000, -2.300297831758478E+08, 4.040854734081138E+08, -1.155604082373870E+08,
2460287.500000000, A.D. 2023-Dec-09 00:00:00.0000, -2.382820142938950E+08, 4.004756868793733E+08, -1.157056938547211E+08,
2460294.500000000, A.D. 2023-Dec-16 00:00:00.0000, -2.464297426650638E+08, 3.966902207314480E+08, -1.158002283880576E+08,
2460301.500000000, A.D. 2023-Dec-23 00:00:00.0000, -2.544700599653466E+08, 3.927318084411685E+08, -1.158442841664897E+08,
2460308.500000000, A.D. 2023-Dec-30 00:00:00.0000, -2.624001110855119E+08, 3.886031835827694E+08, -1.158381395114703E+08,
2460315.500000000, A.D. 2024-Jan-06 00:00:00.0000, -2.702170938473642E+08, 3.843070809349161E+08, -1.157820782504538E+08,
2460322.500000000, A.D. 2024-Jan-13 00:00:00.0000, -2.779182580331141E+08, 3.798462350725386E+08, -1.156763895378241E+08,
2460329.500000000, A.D. 2024-Jan-20 00:00:00.0000, -2.855009025018544E+08, 3.752233795229085E+08, -1.155213678415920E+08,
2460336.500000000, A.D. 2024-Jan-27 00:00:00.0000, -2.929623724202016E+08, 3.704412471352908E+08, -1.153173128560640E+08,
2460343.500000000, A.D. 2024-Feb-03 00:00:00.0000, -3.003000570326071E+08, 3.655025707126868E+08, -1.150645293778720E+08,
2460350.500000000, A.D. 2024-Feb-10 00:00:00.0000, -3.075113876913417E+08, 3.604100836109989E+08, -1.147633271933801E+08,
2460357.500000000, A.D. 2024-Feb-17 00:00:00.0000, -3.145938360055567E+08, 3.551665203102235E+08, -1.144140209885847E+08,
2460364.500000000, A.D. 2024-Feb-24 00:00:00.0000, -3.215449120720322E+08, 3.497746169697679E+08, -1.140169302829861E+08,
2460371.500000000, A.D. 2024-Mar-02 00:00:00.0000, -3.283621627569602E+08, 3.442371119332944E+08, -1.135723793924115E+08,
2460378.500000000, A.D. 2024-Mar-09 00:00:00.0000, -3.350431698886196E+08, 3.385567461186277E+08, -1.130806974383928E+08,
2460385.500000000, A.D. 2024-Mar-16 00:00:00.0000, -3.415855479642168E+08, 3.327362634886245E+08, -1.125422184239444E+08,
2460392.500000000, A.D. 2024-Mar-23 00:00:00.0000, -3.479869414732742E+08, 3.267784127108403E+08, -1.119572812753709E+08,
2460399.500000000, A.D. 2024-Mar-30 00:00:00.0000, -3.542450240780237E+08, 3.206859499787536E+08, -1.113262296468908E+08,
2460406.500000000, A.D. 2024-Apr-06 00:00:00.0000, -3.603574993930295E+08, 3.144616396272091E+08, -1.106494117867296E+08,
2460413.500000000, A.D. 2024-Apr-13 00:00:00.0000, -3.663220998100104E+08, 3.081082533769917E+08, -1.099271807207811E+08,
2460420.500000000, A.D. 2024-Apr-20 00:00:00.0000, -3.721365843192465E+08, 3.016285708831497E+08, -1.091598944470541E+08,
2460427.500000000, A.D. 2024-Apr-27 00:00:00.0000, -3.777987368447169E+08, 2.950253810255772E+08, -1.083479160479537E+08,
2460434.500000000, A.D. 2024-May-04 00:00:00.0000, -3.833063650041980E+08, 2.883014832387798E+08, -1.074916137858995E+08,
2460441.500000000, A.D. 2024-May-11 00:00:00.0000, -3.886572990549471E+08, 2.814596887789304E+08, -1.065913612120649E+08,
2460448.500000000, A.D. 2024-May-18 00:00:00.0000, -3.938493909423138E+08, 2.745028219497588E+08, -1.056475372936216E+08,
2460455.500000000, A.D. 2024-May-25 00:00:00.0000, -3.988805134261646E+08, 2.674337212802944E+08, -1.046605265620556E+08,
2460462.500000000, A.D. 2024-Jun-01 00:00:00.0000, -4.037485592250678E+08, 2.602552405973516E+08, -1.036307192924995E+08,
2460469.500000000, A.D. 2024-Jun-08 00:00:00.0000, -4.084514399317855E+08, 2.529702499702137E+08, -1.025585117383275E+08,
2460476.500000000, A.D. 2024-Jun-15 00:00:00.0000, -4.129870843006473E+08, 2.455816370729539E+08, -1.014443064128947E+08,
2460483.500000000, A.D. 2024-Jun-22 00:00:00.0000, -4.173534369127261E+08, 2.380923101398967E+08, -1.002885122301908E+08,
2460490.500000000, A.D. 2024-Jun-29 00:00:00.0000, -4.215484593420290E+08, 2.305052006946862E+08, -9.909154445918089E+07,
2460497.500000000, A.D. 2024-Jul-06 00:00:00.0000, -4.255701311781351E+08, 2.228232635840326E+08, -9.785382493665129E+07,
2460504.500000000, A.D. 2024-Jul-13 00:00:00.0000, -4.294164489549589E+08, 2.150494771409095E+08, -9.657578248584080E+07,
2460511.500000000, A.D. 2024-Jul-20 00:00:00.0000, -4.330854249717830E+08, 2.071868446258756E+08, -9.525785326466255E+07,
2460518.500000000, A.D. 2024-Jul-27 00:00:00.0000, -4.365750866636404E+08, 1.992383959881955E+08, -9.390048106211741E+07,
2460525.500000000, A.D. 2024-Aug-03 00:00:00.0000, -4.398834762483765E+08, 1.912071895728106E+08, -9.250411759853439E+07,
2460532.500000000, A.D. 2024-Aug-10 00:00:00.0000, -4.430086504851379E+08, 1.830963137688350E+08, -9.106922284510756E+07,
2460539.500000000, A.D. 2024-Aug-17 00:00:00.0000, -4.459486804986847E+08, 1.749088886212908E+08, -8.959626536571568E+07,
2460546.500000000, A.D. 2024-Aug-24 00:00:00.0000, -4.487016516445406E+08, 1.666480673845095E+08, -8.808572268644173E+07,
2460553.500000000, A.D. 2024-Aug-31 00:00:00.0000, -4.512656633026128E+08, 1.583170379573289E+08, -8.653808170975637E+07,
2460560.500000000, A.D. 2024-Sep-07 00:00:00.0000, -4.536388282367510E+08, 1.499190243286017E+08, -8.495383919777459E+07,
2460567.500000000, A.D. 2024-Sep-14 00:00:00.0000, -4.558192714375359E+08, 1.414572890308387E+08, -8.333350225190540E+07,
2460574.500000000, A.D. 2024-Sep-21 00:00:00.0000, -4.578051304800615E+08, 1.329351370159700E+08, -8.167758856994614E+07,
2460581.500000000, A.D. 2024-Sep-28 00:00:00.0000, -4.595945578881786E+08, 1.243559177274226E+08, -7.998662670082331E+07,
2460588.500000000, A.D. 2024-Oct-05 00:00:00.0000, -4.611857218383207E+08, 1.157230253725871E+08, -7.826115663400868E+07,
2460595.500000000, A.D. 2024-Oct-12 00:00:00.0000, -4.625768055651933E+08, 1.070399003765413E+08, -7.650173044685498E+07,
2460602.500000000, A.D. 2024-Oct-19 00:00:00.0000, -4.637660072239995E+08, 9.831003174608159E+07, -7.470891287193541E+07,
2460609.500000000, A.D. 2024-Oct-26 00:00:00.0000, -4.647515402467812E+08, 8.953695954364747E+07, -7.288328184801130E+07,
2460616.500000000, A.D. 2024-Nov-02 00:00:00.0000, -4.655316339404554E+08, 8.072427732431406E+07, -7.102542909124121E+07,
2460623.500000000, A.D. 2024-Nov-09 00:00:00.0000, -4.661045342347129E+08, 7.187563455787788E+07, -6.913596069446813E+07,
2460630.500000000, A.D. 2024-Nov-16 00:00:00.0000, -4.664685045589787E+08, 6.299473903733805E+07, -6.721549775759509E+07,
2460637.500000000, A.D. 2024-Nov-23 00:00:00.0000, -4.666218268070993E+08, 5.408535922475693E+07, -6.526467705812947E+07,
2460644.500000000, A.D. 2024-Nov-30 00:00:00.0000, -4.665628021875132E+08, 4.515132649261289E+07, -6.328415178519507E+07,
2460651.500000000, A.D. 2024-Dec-07 00:00:00.0000, -4.662897515458180E+08, 3.619653768182319E+07, -6.127459234177115E+07,
2460658.500000000, A.D. 2024-Dec-14 00:00:00.0000, -4.658010158550581E+08, 2.722495920045738E+07, -5.923668705260606E+07,
2460665.500000000, A.D. 2024-Dec-21 00:00:00.0000, -4.650949592003526E+08, 1.824063142178297E+07, -5.717114266744657E+07,
2460672.500000000, A.D. 2024-Dec-28 00:00:00.0000, -4.641699722951709E+08, 9.247670414268080E+06, -5.507868508417443E+07,
2460679.500000000, A.D. 2025-Jan-04 00:00:00.0000, -4.630244739406626E+08, 2.502693804119565E+05, -5.296006033640488E+07,
2460686.500000000, A.D. 2025-Jan-11 00:00:00.0000, -4.616569122567565E+08, -8.747298536706390E+06, -5.081603554289950E+07,
2460693.500000000, A.D. 2025-Jan-18 00:00:00.0000, -4.600657666114795E+08, -1.774067700046642E+07, -4.864739981036069E+07,
2460700.500000000, A.D. 2025-Jan-25 00:00:00.0000, -4.582495500165165E+08, -2.672542325818982E+07, -4.645496515164632E+07,
2460707.500000000, A.D. 2025-Feb-01 00:00:00.0000, -4.562068118114251E+08, -3.569700498136048E+07, -4.423956743996349E+07,
2460714.500000000, A.D. 2025-Feb-08 00:00:00.0000, -4.539361405902188E+08, -4.465079715170620E+07, -4.200206740330356E+07,
$$EOE